[{"OBJECT_NAME":"HYDROGNSS-1","OBJECT_ID":"2025-276DA","EPOCH":"2026-03-09T16:55:29.279136","MEAN_MOTION":15.18118061,"ECCENTRICITY":0.00027273,"INCLINATION":97.4268,"RA_OF_ASC_NODE":143.9079,"ARG_OF_PERICENTER":33.5879,"MEAN_ANOMALY":326.5527,"EPHEMERIS_TYPE":0,"CLASSIFICATION_TYPE":"U","NORAD_CAT_ID":66762,"ELEMENT_SET_NO":999,"REV_AT_EPOCH":1531,"BSTAR":0.00026903168,"MEAN_MOTION_DOT":5.422e-5,"MEAN_MOTION_DDOT":0},{"OBJECT_NAME":"OBJECT A","OBJECT_ID":"2026-027A","EPOCH":"2026-03-09T21:37:47.784000","MEAN_MOTION":15.17715556,"ECCENTRICITY":0.00101917,"INCLINATION":97.4902,"RA_OF_ASC_NODE":197.9118,"ARG_OF_PERICENTER":193.8683,"MEAN_ANOMALY":166.2272,"EPHEMERIS_TYPE":0,"CLASSIFICATION_TYPE":"U","NORAD_CAT_ID":67746,"ELEMENT_SET_NO":999,"REV_AT_EPOCH":389,"BSTAR":0.00052290801,"MEAN_MOTION_DOT":0.00010498,"MEAN_MOTION_DDOT":0}]
